{"type": "FeatureCollection", "features": [ {"type": "Feature", "properties": {"norad_id": 41469, "name": "IRNSS-1G", "group": "gnss", "lat": -1.309853598556777, "lon": 85.7865905718153, "alt_km": 35773.218996012125, "timestamp": "2025-12-13T15:35:12.349904+00:00", "meta": {"OBJECT_NAME": "IRNSS-1G", "OBJECT_ID": "2016-027A", "EPOCH": "2025-12-12T21:51:51.512832", "MEAN_MOTION": 1.0028008, "ECCENTRICITY": 0.000258, "INCLINATION": 4.7341, "RA_OF_ASC_NODE": 102.0928, "ARG_OF_PERICENTER": 335.8281, "MEAN_ANOMALY": 101.2265, "EPHEMERIS_TYPE": 0, "CLASSIFICATION_TYPE": "U", "NORAD_CAT_ID": 41469, "ELEMENT_SET_NO": 999, "REV_AT_EPOCH": 3531, "BSTAR": 0, "MEAN_MOTION_DOT": -3.22e-06, "MEAN_MOTION_DDOT": 0}, "tle": {"line1": "1 41469U 16027A   25346.91101288 -.00000322  00000+0  00000+0 0  9996", "line2": "2 41469   4.7341 102.0928 0002580 335.8281 101.2265  1.00280080 35310"}}, "geometry": {"type": "Point", "coordinates": [85.7865905718153, -1.309853598556777]}}, {"type": "Feature", "properties": {"norad_id": 41549, "name": "GSAT0211 (GALILEO 14)", "group": "gnss", "lat": 38.197260067394396, "lon": 13.598144148930635, "alt_km": 23222.33852236204, "timestamp": "2025-12-13T15:35:12.349916+00:00", "meta": {"OBJECT_NAME": "GSAT0211 (GALILEO 14)", "OBJECT_ID": "2016-030A", "EPOCH": "2025-12-11T02:09:03.353760", "MEAN_MOTION": 1.70473055, "ECCENTRICITY": 0.00041282, "INCLINATION": 55.1527, "RA_OF_ASC_NODE": 226.8689, "ARG_OF_PERICENTER": 18.4657, "MEAN_ANOMALY": 341.6286, "EPHEMERIS_TYPE": 0, "CLASSIFICATION_TYPE": "U", "NORAD_CAT_ID": 41549, "ELEMENT_SET_NO": 999, "REV_AT_EPOCH": 5946, "BSTAR": 0, "MEAN_MOTION_DOT": 9e-08, "MEAN_MOTION_DDOT": 0}, "tle": {"line1": "1 41549U 16030A   25345.08962215  .00000009  00000+0  00000+0 0  9992", "line2": "2 41549  55.1527 226.8689 0004128  18.4657 341.6286  1.70473055 59463"}}, "geometry": {"type": "Point", "coordinates": [13.598144148930635, 38.197260067394396]}}, {"type": "Feature", "properties": {"norad_id": 41550, "name": "GSAT0210 (GALILEO 13)", "group": "gnss", "lat": -21.830619235545118, "lon": -149.38697850512742, "alt_km": 23225.22179486488, "timestamp": "2025-12-13T15:35:12.349926+00:00", "meta": {"OBJECT_NAME": "GSAT0210 (GALILEO 13)", "OBJECT_ID": "2016-030B", "EPOCH": "2025-12-11T08:19:41.751264", "MEAN_MOTION": 1.70473653, "ECCENTRICITY": 0.00011945, "INCLINATION": 55.152, "RA_OF_ASC_NODE": 226.8599, "ARG_OF_PERICENTER": 242.2312, "MEAN_ANOMALY": 117.8354, "EPHEMERIS_TYPE": 0, "CLASSIFICATION_TYPE": "U", "NORAD_CAT_ID": 41550, "ELEMENT_SET_NO": 999, "REV_AT_EPOCH": 5946, "BSTAR": 0, "MEAN_MOTION_DOT": 1e-07, "MEAN_MOTION_DDOT": 0}, "tle": {"line1": "1 41550U 16030B   25345.34701101  .00000010  00000+0  00000+0 0  9990", "line2": "2 41550  55.1520 226.8599 0001194 242.2312 117.8354  1.70473653 59466"}}, "geometry": {"type": "Point", "coordinates": [-149.38697850512742, -21.830619235545118]}}, {"type": "Feature", "properties": {"norad_id": 41586, "name": "BEIDOU-2 G7 (C03)", "group": "gnss", "lat": -0.010370783583782323, "lon": 66.78154337591383, "alt_km": 35768.30428589605, "timestamp": "2025-12-13T15:35:12.349940+00:00", "meta": {"OBJECT_NAME": "BEIDOU-2 G7 (C03)", "OBJECT_ID": "2016-037A", "EPOCH": "2025-12-13T00:54:38.886048", "MEAN_MOTION": 1.0026712, "ECCENTRICITY": 0.00045311, "INCLINATION": 1.7581, "RA_OF_ASC_NODE": 67.7678, "ARG_OF_PERICENTER": 358.8188, "MEAN_ANOMALY": 139.4696, "EPHEMERIS_TYPE": 0, "CLASSIFICATION_TYPE": "U", "NORAD_CAT_ID": 41586, "ELEMENT_SET_NO": 999, "REV_AT_EPOCH": 502, "BSTAR": 0, "MEAN_MOTION_DOT": -3.4e-06, "MEAN_MOTION_DDOT": 0}, "tle": {"line1": "1 41586U 16037A   25347.03795007 -.00000340  00000+0  00000+0 0  9999", "line2": "2 41586   1.7581  67.7678 0004531 358.8188 139.4696  1.00267120  5027"}}, "geometry": {"type": "Point", "coordinates": [66.78154337591383, -0.010370783583782323]}}, {"type": "Feature", "properties": {"norad_id": 41589, "name": "EUTELSAT 117 WEST B (WAAS/PRN 131)", "group": "gnss", "lat": 0.006003054407030626, "lon": -160.60389110702954, "alt_km": 35786.79128925393, "timestamp": "2025-12-13T15:35:12.349954+00:00", "meta": {"OBJECT_NAME": "EUTELSAT 117 WEST B (WAAS/PRN 131)", "OBJECT_ID": "2016-038B", "EPOCH": "2025-12-12T23:11:46.195296", "MEAN_MOTION": 1.00271866, "ECCENTRICITY": 2.512e-05, "INCLINATION": 0.011, "RA_OF_ASC_NODE": 153.7448, "ARG_OF_PERICENTER": 269.9053, "MEAN_ANOMALY": 249.2194, "EPHEMERIS_TYPE": 0, "CLASSIFICATION_TYPE": "U", "NORAD_CAT_ID": 41589, "ELEMENT_SET_NO": 999, "REV_AT_EPOCH": 3479, "BSTAR": 0, "MEAN_MOTION_DOT": 1e-08, "MEAN_MOTION_DDOT": 0}, "tle": {"line1": "1 41589U 16038B   25346.96650689  .00000001  00000+0  00000+0 0  9993", "line2": "2 41589   0.0110 153.7448 0000251 269.9053 249.2194  1.00271866 34790"}}, "geometry": {"type": "Point", "coordinates": [-160.60389110702954, 0.006003054407030626]}}, {"type": "Feature", "properties": {"norad_id": 41859, "name": "GSAT0207 (GALILEO 15)", "group": "gnss", "lat": 14.495159761676344, "lon": -84.06518374531282, "alt_km": 23226.728664595237, "timestamp": "2025-12-13T15:35:12.350007+00:00", "meta": {"OBJECT_NAME": "GSAT0207 (GALILEO 15)", "OBJECT_ID": "2016-069A", "EPOCH": "2025-12-12T05:05:06.598752", "MEAN_MOTION": 1.70474433, "ECCENTRICITY": 0.00022337, "INCLINATION": 55.3817, "RA_OF_ASC_NODE": 106.2648, "ARG_OF_PERICENTER": 322.8614, "MEAN_ANOMALY": 37.0934, "EPHEMERIS_TYPE": 0, "CLASSIFICATION_TYPE": "U", "NORAD_CAT_ID": 41859, "ELEMENT_SET_NO": 999, "REV_AT_EPOCH": 5621, "BSTAR": 0, "MEAN_MOTION_DOT": 5e-08, "MEAN_MOTION_DDOT": 0}, "tle": {"line1": "1 41859U 16069A   25346.21188193  .00000005  00000+0  00000+0 0  9995", "line2": "2 41859  55.3817 106.2648 0002233 322.8614  37.0934  1.70474433 56214"}}, "geometry": {"type": "Point", "coordinates": [-84.06518374531282, 14.495159761676344]}}, {"type": "Feature", "properties": {"norad_id": 41860, "name": "GSAT0212 (GALILEO 16)", "group": "gnss", "lat": -51.55496525880765, "lon": -13.401590729165202, "alt_km": 23232.348334051112, "timestamp": "2025-12-13T15:35:12.350026+00:00", "meta": {"OBJECT_NAME": "GSAT0212 (GALILEO 16)", "OBJECT_ID": "2016-069B", "EPOCH": "2025-12-11T11:29:42.448992", "MEAN_MOTION": 1.70474595, "ECCENTRICITY": 0.00021636, "INCLINATION": 55.3791, "RA_OF_ASC_NODE": 106.2805, "ARG_OF_PERICENTER": 27.6057, "MEAN_ANOMALY": 332.3763, "EPHEMERIS_TYPE": 0, "CLASSIFICATION_TYPE": "U", "NORAD_CAT_ID": 41860, "ELEMENT_SET_NO": 999, "REV_AT_EPOCH": 5645, "BSTAR": 0, "MEAN_MOTION_DOT": 8e-08, "MEAN_MOTION_DDOT": 0}, "tle": {"line1": "1 41860U 16069B   25345.47896353  .00000008  00000+0  00000+0 0  9991", "line2": "2 41860  55.3791 106.2805 0002163  27.6057 332.3763  1.70474595 56451"}}, "geometry": {"type": "Point", "coordinates": [-13.401590729165202, -51.55496525880765]}}, {"type": "Feature", "properties": {"norad_id": 41861, "name": "GSAT0213 (GALILEO 17)", "group": "gnss", "lat": 21.549924874068306, "lon": 122.03164300939129, "alt_km": 23221.062161197362, "timestamp": "2025-12-13T15:35:12.350046+00:00", "meta": {"OBJECT_NAME": "GSAT0213 (GALILEO 17)", "OBJECT_ID": "2016-069C", "EPOCH": "2025-12-11T06:14:19.190112", "MEAN_MOTION": 1.70474845, "ECCENTRICITY": 0.00023572, "INCLINATION": 55.3813, "RA_OF_ASC_NODE": 106.2942, "ARG_OF_PERICENTER": 283.5833, "MEAN_ANOMALY": 76.361, "EPHEMERIS_TYPE": 0, "CLASSIFICATION_TYPE": "U", "NORAD_CAT_ID": 41861, "ELEMENT_SET_NO": 999, "REV_AT_EPOCH": 5631, "BSTAR": 0, "MEAN_MOTION_DOT": 9e-08, "MEAN_MOTION_DDOT": 0}, "tle": {"line1": "1 41861U 16069C   25345.25994433  .00000009  00000+0  00000+0 0  9997", "line2": "2 41861  55.3813 106.2942 0002357 283.5833  76.3610  1.70474845 56318"}}, "geometry": {"type": "Point", "coordinates": [122.03164300939129, 21.549924874068306]}}, {"type": "Feature", "properties": {"norad_id": 41862, "name": "GSAT0214 (GALILEO 18)", "group": "gnss", "lat": -47.21970401026546, "lon": 57.97616138094537, "alt_km": 23223.432773404034, "timestamp": "2025-12-13T15:35:12.350057+00:00", "meta": {"OBJECT_NAME": "GSAT0214 (GALILEO 18)", "OBJECT_ID": "2016-069D", "EPOCH": "2025-12-12T13:53:54.735936", "MEAN_MOTION": 1.70474744, "ECCENTRICITY": 0.00013694, "INCLINATION": 55.3802, "RA_OF_ASC_NODE": 106.2504, "ARG_OF_PERICENTER": 290.3791, "MEAN_ANOMALY": 69.576, "EPHEMERIS_TYPE": 0, "CLASSIFICATION_TYPE": "U", "NORAD_CAT_ID": 41862, "ELEMENT_SET_NO": 999, "REV_AT_EPOCH": 5646, "BSTAR": 0, "MEAN_MOTION_DOT": 4e-08, "MEAN_MOTION_DDOT": 0}, "tle": {"line1": "1 41862U 16069D   25346.57910574  .00000004  00000+0  00000+0 0  9993", "line2": "2 41862  55.3802 106.2504 0001369 290.3791  69.5760  1.70474744 56466"}}, "geometry": {"type": "Point", "coordinates": [57.97616138094537, -47.21970401026546]}}, {"type": "Feature", "properties": {"norad_id": 42709, "name": "SES-15 (WAAS/PRN 133)", "group": "gnss", "lat": -0.01708846954540832, "lon": -172.80028342431535, "alt_km": 35783.0754227843, "timestamp": "2025-12-13T15:35:12.350069+00:00", "meta": {"OBJECT_NAME": "SES-15 (WAAS/PRN 133)", "OBJECT_ID": "2017-026A", "EPOCH": "2025-12-12T23:08:16.530144", "MEAN_MOTION": 1.00272327, "ECCENTRICITY": 6.925e-05, "INCLINATION": 0.0181, "RA_OF_ASC_NODE": 343.7462, "ARG_OF_PERICENTER": 219.1119, "MEAN_ANOMALY": 96.942, "EPHEMERIS_TYPE": 0, "CLASSIFICATION_TYPE": "U", "NORAD_CAT_ID": 42709, "ELEMENT_SET_NO": 999, "REV_AT_EPOCH": 556, "BSTAR": 0, "MEAN_MOTION_DOT": 7.2e-07, "MEAN_MOTION_DDOT": 0}, "tle": {"line1": "1 42709U 17026A   25346.96408021  .00000072  00000+0  00000+0 0  9995", "line2": "2 42709   0.0181 343.7462 0000692 219.1119  96.9420  1.00272327  5564"}}, "geometry": {"type": "Point", "coordinates": [-172.80028342431535, -0.01708846954540832]}}]}